NORAD_CAT_ID,OBJECT_NAME,OBJECT_TYPE,EPOCH,MEAN_MOTION,ECCENTRICITY,INCLINATION,RA_OF_ASC_NODE,ARG_OF_PERICENTER,MEAN_ANOMALY,BSTAR,MEAN_MOTION_DOT,MEAN_MOTION_DDOT,TLE_LINE0,TLE_LINE1,TLE_LINE2,SEMIMAJOR_AXIS,PERIOD,APOGEE,PERIGEE,DECAYED
55405.0,STARLINK-5623,PAYLOAD,2024-04-23 22:15:07,14.98324597,0.0002971,70.0,351.0279,267.5053,92.5766,9.9906e-05,1.099e-05,0.0,0 STARLINK-5623,1 55405U 23014Q   24114.92716608  .00001099  00000-0  99906-4 0  9996,2 55405  70.0000 351.0279 0002971 267.5053  92.5766 14.98324597 69486,6950.21,96.107,574.14,570.01,0.0
55405.0,STARLINK-5623,PAYLOAD,2024-04-24 01:27:22,14.98330594,0.0002594,70.0017,350.6949,240.6415,119.4485,0.00010086,1.111e-05,0.0,0 STARLINK-5623,1 55405U 23014Q   24115.06068194  .00001111  00000-0  10086-3 0  9998,2 55405  70.0017 350.6949 0002594 240.6415 119.4485 14.98330594 69502,6950.191,96.107,573.859,570.253,0.0
55405.0,STARLINK-5623,PAYLOAD,2024-04-24 20:40:59,14.98330085,0.000266,70.0016,348.6754,237.936,122.1541,2.8864e-05,2.51e-06,0.0,0 STARLINK-5623,1 55405U 23014Q   24115.86180352  .00000251  00000-0  28864-4 0  9995,2 55405  70.0016 348.6754 0002660 237.9360 122.1541 14.98330085 68681,6950.193,96.107,573.906,570.209,0.0
55405.0,STARLINK-5623,PAYLOAD,2024-04-24 22:17:08,14.98327841,0.00027,70.0014,348.5069,245.0022,115.0857,1.299e-05,6.2e-07,0.0,0 STARLINK-5623,1 55405U 23014Q   24115.92856566  .00000062  00000-0  12990-4 0  9992,2 55405  70.0014 348.5069 0002700 245.0022 115.0857 14.98327841 69630,6950.2,96.107,573.941,570.188,0.0
55405.0,STARLINK-5623,PAYLOAD,2024-04-25 01:29:24,14.98327154,0.0002685,70.0012,348.1696,248.1947,111.8927,1.0467e-05,3.2e-07,0.0,0 STARLINK-5623,1 55405U 23014Q   24116.06208652  .00000032  00000-0  10467-4 0  9999,2 55405  70.0012 348.1696 0002685 248.1947 111.8927 14.98327154 69653,6950.202,96.107,573.933,570.201,0.0
55405.0,STARLINK-5623,PAYLOAD,2024-04-25 20:43:00,14.98331584,0.0002752,70.0007,346.1486,255.9688,104.1165,2.762e-05,2.37e-06,0.0,0 STARLINK-5623,1 55405U 23014Q   24116.86320347  .00000237  00000-0  27620-4 0  9999,2 55405  70.0007 346.1486 0002752 255.9688 104.1165 14.98331584 68835,6950.188,96.107,573.966,570.14,0.0
55405.0,STARLINK-5623,PAYLOAD,2024-04-25 22:19:08,14.98332235,0.0002743,70.0006,345.9802,256.0564,104.029,3.3814e-05,3.11e-06,0.0,0 STARLINK-5623,1 55405U 23014Q   24116.92996282  .00000311  00000-0  33814-4 0  9998,2 55405  70.0006 345.9802 0002743 256.0564 104.0290 14.98332235 69785,6950.186,96.107,573.957,570.145,0.0
55405.0,STARLINK-5623,PAYLOAD,2024-04-26 14:20:29,14.98330078,0.0002683,70.0007,344.2973,260.9288,99.1568,5.8462e-05,6.05e-06,0.0,0 STARLINK-5623,1 55405U 23014Q   24117.59756206  .00000605  00000-0  58462-4 0  9994,2 55405  70.0007 344.2973 0002683 260.9288  99.1568 14.98330078 69883,6950.193,96.107,573.922,570.193,0.0
55405.0,STARLINK-5623,PAYLOAD,2024-04-26 15:56:37,14.98329131,0.0002661,70.0007,344.1281,264.1269,95.9587,5.0981e-05,5.15e-06,0.0,0 STARLINK-5623,1 55405U 23014Q   24117.66432312  .00000515  00000-0  50981-4 0  9999,2 55405  70.0007 344.1281 0002661 264.1269  95.9587 14.98329131 69899,6950.196,96.107,573.91,570.211,0.0
55405.0,STARLINK-5623,PAYLOAD,2024-04-27 07:57:57,14.98335785,0.0002799,69.9997,342.443,267.0683,93.0156,3.0228e-05,2.68e-06,0.0,0 STARLINK-5623,1 55405U 23014Q   24118.33191821  .00000268  00000-0  30228-4 0  9998,2 55405  69.9997 342.4430 0002799 267.0683  93.0156 14.98335785 69056,6950.175,96.107,573.985,570.095,0.0
55405.0,STARLINK-5623,PAYLOAD,2024-04-27 20:47:02,14.98327858,0.0002627,69.9999,341.0973,264.1765,95.9094,-5.0634e-06,-1.53e-06,0.0,0 STARLINK-5623,1 55405U 23014Q   24118.86600399 -.00000153  00000-0 -50634-5 0  9990,2 55405  69.9999 341.0973 0002627 264.1765  95.9094 14.98327858 69137,6950.2,96.107,573.89,570.239,0.0
55405.0,STARLINK-5623,PAYLOAD,2024-04-27 22:23:10,14.98330478,0.0002767,69.9995,340.929,269.7907,90.2935,-2.239e-05,-3.6e-06,0.0,0 STARLINK-5623,1 55405U 23014Q   24118.93276307 -.00000360  00000-0 -22390-4 0  9993,2 55405  69.9995 340.9290 0002767 269.7907  90.2935 14.98330478 70087,6950.191,96.107,573.98,570.133,0.0
55405.0,STARLINK-5623,PAYLOAD,2024-04-28 14:24:31,14.98330105,0.0002686,69.9993,339.2451,266.3828,93.7024,-1.5389e-05,-2.77e-06,0.0,0 STARLINK-5623,1 55405U 23014Q   24119.60036234 -.00000277  00000-0 -15389-4 0  9998,2 55405  69.9993 339.2451 0002686 266.3828  93.7024 14.98330105 70185,6950.193,96.107,573.924,570.191,0.0
55405.0,STARLINK-5623,PAYLOAD,2024-04-28 20:49:03,14.983299,0.0002708,69.9994,338.5712,265.348,94.7369,-1.553e-05,-2.78e-06,0.0,0 STARLINK-5623,1 55405U 23014Q   24119.86740221 -.00000278  00000-0 -15530-4 0  9993,2 55405  69.9994 338.5712 0002708 265.3480  94.7369 14.98329900 69289,6950.193,96.107,573.94,570.176,0.0
55405.0,STARLINK-5623,PAYLOAD,2024-04-28 22:25:11,14.98328319,0.0002729,69.9994,338.4028,264.8394,95.2453,-3.1725e-05,-4.71e-06,0.0,0 STARLINK-5623,1 55405U 23014Q   24119.93416361 -.00000471  00000-0 -31725-4 0  9995,2 55405  69.9994 338.4028 0002729 264.8394  95.2453 14.98328319 70239,6950.198,96.107,573.96,570.166,0.0
55405.0,STARLINK-5623,PAYLOAD,2024-04-29 08:01:59,14.98336077,0.0003049,69.999,337.3918,263.3643,96.717,-0.00011209,-1.43e-05,0.0,0 STARLINK-5623,1 55405U 23014Q   24120.33471959 -.00001430  00000-0 -11209-3 0  9995,2 55405  69.9990 337.3918 0003049 263.3643  96.7170 14.98336077 70296,6950.174,96.107,574.158,569.92,0.0
55405.0,STARLINK-5623,PAYLOAD,2024-04-29 20:51:04,14.98328507,0.0002859,69.9989,336.0452,267.8024,92.2807,3.3484e-05,3.07e-06,0.0,0 STARLINK-5623,1 55405U 23014Q   24120.86880211  .00000307  00000-0  33484-4 0  9998,2 55405  69.9989 336.0452 0002859 267.8024  92.2807 14.98328507 69434,6950.198,96.107,574.05,570.075,0.0
55405.0,STARLINK-5623,PAYLOAD,2024-04-29 22:27:12,14.98317711,0.0002837,69.999,335.8771,269.1407,90.9427,0.00023105,2.664e-05,0.0,0 STARLINK-5623,1 55405U 23014Q   24120.93556395  .00002664  00000-0  23105-3 0  9995,2 55405  69.9990 335.8771 0002837 269.1407  90.9427 14.98317711 70387,6950.231,96.108,574.068,570.124,0.0
55405.0,STARLINK-5623,PAYLOAD,2024-04-30 14:28:33,14.98337663,0.0002717,69.9989,334.1939,266.8109,93.2739,-9.7282e-05,-1.254e-05,0.0,0 STARLINK-5623,1 55405U 23014Q   24121.60316072 -.00001254  00000-0 -97282-4 0  9990,2 55405  69.9989 334.1939 0002717 266.8109  93.2739 14.98337663 70484,6950.169,96.107,573.923,570.146,0.0
55405.0,STARLINK-5623,PAYLOAD,2024-04-30 20:53:05,14.98330093,0.000296,69.9989,333.5205,269.3574,90.7246,2.6974e-05,2.29e-06,0.0,0 STARLINK-5623,1 55405U 23014Q   24121.87020102  .00000229  00000-0  26974-4 0  9994,2 55405  69.9989 333.5205 0002960 269.3574  90.7246 14.98330093 69581,6950.193,96.107,574.115,570.0,0.0
55405.0,STARLINK-5623,PAYLOAD,2024-04-30 22:29:13,14.98331262,0.0002964,69.9989,333.3523,269.4871,90.5949,3.9187e-05,3.75e-06,0.0,0 STARLINK-5623,1 55405U 23014Q   24121.93695985  .00000375  00000-0  39187-4 0  9990,2 55405  69.9989 333.3523 0002964 269.4871  90.5949 14.98331262 70531,6950.189,96.107,574.114,569.994,0.0
55405.0,STARLINK-5623,PAYLOAD,2024-05-01 00:05:21,14.98331505,0.0002963,69.9989,333.1839,269.521,90.561,4.1033e-05,3.97e-06,0.0,0 STARLINK-5623,1 55405U 23014Q   24122.00371959  .00000397  00000-0  41033-4 0  9998,2 55405  69.9989 333.1839 0002963 269.5210  90.5610 14.98331505 70542,6950.188,96.107,574.113,569.994,0.0
55405.0,STARLINK-5623,PAYLOAD,2024-05-01 20:55:05,14.98334672,0.0002968,69.9989,330.9955,269.7646,90.3173,3.963e-05,3.8e-06,0.0,0 STARLINK-5623,1 55405U 23014Q   24122.87159602  .00000380  00000-0  39630-4 0  9994,2 55405  69.9989 330.9955 0002968 269.7646  90.3173 14.98334672 69735,6950.178,96.107,574.106,569.981,0.0
55405.0,STARLINK-5623,PAYLOAD,2024-05-02 14:32:34,14.98329943,0.0002968,69.9988,329.1438,269.6591,90.4228,-8.7737e-06,-1.98e-06,0.0,0 STARLINK-5623,1 55405U 23014Q   24123.60595893 -.00000198  00000-0 -87737-5 0  9993,2 55405  69.9988 329.1438 0002968 269.6591  90.4228 14.98329943 70782,6950.193,96.107,574.121,569.995,0.0
55405.0,STARLINK-5623,PAYLOAD,2024-05-02 20:57:06,14.98331438,0.0002958,69.9985,328.4704,269.5613,90.5207,6.0358e-07,-8.6e-07,0.0,0 STARLINK-5623,1 55405U 23014Q   24123.87299746 -.00000086  00000-0  60358-6 0  9996,2 55405  69.9985 328.4704 0002958 269.5613  90.5207 14.98331438 69889,6950.188,96.107,574.109,569.998,0.0
55405.0,STARLINK-5623,PAYLOAD,2024-05-03 14:34:35,14.98327992,0.0002825,69.9988,326.6187,270.1436,89.9399,-6.8702e-06,-1.75e-06,0.0,0 STARLINK-5623,1 55405U 23014Q   24124.60735843 -.00000175  00000-0 -68702-5 0  9991,2 55405  69.9988 326.6187 0002825 270.1436  89.9399 14.98327992 70933,6950.199,96.107,574.028,570.101,0.0
55405.0,STARLINK-5623,PAYLOAD,2024-05-03 20:59:08,14.98326086,0.0002871,69.9988,325.9456,268.5945,91.4886,-3.3266e-05,-4.9e-06,0.0,0 STARLINK-5623,1 55405U 23014Q   24124.87440062 -.00000490  00000-0 -33266-4 0  9992,2 55405  69.9988 325.9456 0002871 268.5945  91.4886 14.98326086 70034,6950.205,96.107,574.065,570.075,0.0
55405.0,STARLINK-5623,PAYLOAD,2024-05-03 22:35:16,14.98326102,0.0002869,69.9988,325.7772,268.6431,91.44,-3.2652e-05,-4.83e-06,0.0,0 STARLINK-5623,1 55405U 23014Q   24124.94116073 -.00000483  00000-0 -32652-4 0  9992,2 55405  69.9988 325.7772 0002869 268.6431  91.4400 14.98326102 70986,6950.205,96.107,574.064,570.076,0.0
55405.0,STARLINK-5623,PAYLOAD,2024-05-04 21:01:08,14.98331561,0.0002981,69.9986,323.4203,268.6299,91.4519,1.6464e-05,1.03e-06,0.0,0 STARLINK-5623,1 55405U 23014Q   24125.87579593  .00000103  00000-0  16464-4 0  9995,2 55405  69.9986 323.4203 0002981 268.6299  91.4519 14.98331561 70183,6950.188,96.107,574.125,569.981,0.0
55405.0,STARLINK-5623,PAYLOAD,2024-05-05 14:38:37,14.98329378,0.0003042,69.9985,321.5682,268.5173,91.5638,7.1959e-05,7.66e-06,0.0,0 STARLINK-5623,1 55405U 23014Q   24126.61015506  .00000766  00000-0  71959-4 0  9992,2 55405  69.9985 321.5682 0003042 268.5173  91.5638 14.98329378 71234,6950.195,96.107,574.174,569.946,0.0
